73P-BW/Schwassmann-Wachmann,e,11.0798,197.1125,68.1513,4.586578,0.1003393,0.78922675,52.3842,02/02.0/2024,2000,g 18.2,4.0
# From MPEC 2023-A50
73P-BX/Schwassmann-Wachmann,e,11.3156,69.3867,199.3052,3.122600,0.1786198,0.69061783,93.7298,02/02.0/2024,2000,g 17.5,4.0
# From MPEC 2022-R15
73P-BY/Schwassmann-Wachmann,e,11.1811,199.3780,69.6908,3.031957,0.1866893,0.68219676,98.1769,02/02.0/2024,2000,g 17.4,4.0
# From MPEC 2024-C04
74P/Smirnova-Chernykh,e,6.4932,53.6698,128.3895,4.819986,0.0931398,0.04383923,219.5823,02/02.0/2024,2000,g  5.0,6.0
# From CCO 7
75D/Kohoutek,e,5.9247,269.5546,175.5464,3.537540,0.1481330,0.49925207,157.1743,02/02.0/2024,2000,g  9.5,6.0
# From MPEC 2022-K19
76P/West-Kohoutek-Ikemura,e,30.4858,84.1093,359.9488,3.469285,0.1525261,0.53922050,237.7378,02/02.0/2024,2000,g  8.0,12.0
# From MPEC 2023-TM6
77P/Longmore,e,24.3184,14.7640,196.6928,3.622510,0.1429518,0.35170144,43.6021,02/02.0/2024,2000,g  7.0,8.0
# From MPEC 2021-O56
78P/Gehrels,e,6.2569,210.5313,192.6792,3.735725,0.1365028,0.46316203,240.7072,02/02.0/2024,2000,g  5.5,8.0
# From MPC 94675
79P/du Toit-Hartley,e,3.1488,281.7710,280.5296,2.944002,0.1951178,0.61922130,24.3207,02/02.0/2024,2000,g 16.0,4.0
# From MPEC 2023-RF3
80P/Peters-Hartley,e,29.9233,259.7866,339.2664,4.022757,0.1221570,0.59829753,51.3301,02/02.0/2024,2000,g  9.0,8.0
# From MPEC 2024-C04
81P/Wild,e,3.2367,136.0939,41.5954,3.453040,0.1536037,0.53725560,63.5029,02/02.0/2024,2000,g  7.0,6.0
# From MPC133426
82P/Gehrels,e,1.1291,239.2366,226.4099,4.132369,0.1173290,0.12239688,240.5464,02/02.0/2024,2000,g 15.0,4.0
# From NK 932
83D/Russell,e,17.8257,226.3072,334.4374,3.843958,0.1307784,0.44141404,128.8707,02/02.0/2024,2000,g  9.0,4.0
# From MPEC 2020-FB5
84P/Giclas,e,7.5511,108.1645,281.6411,3.550087,0.1473485,0.51604901,197.0280,02/02.0/2024,2000,g  9.5,8.0
# From unp
85D/Boethin,e,4.1742,65.2841,333.0674,5.043862,0.0870080,0.77631431,111.5212,02/02.0/2024,2000,g  6.5,8.0
# From MPEC 2022-YB4
86P/Wild,e,15.5057,72.1464,180.3451,3.619148,0.1431510,0.37126598,103.5225,02/02.0/2024,2000,g 11.0,6.0
# From MPEC 2020-SI8
87P/Bus,e,2.7636,187.3094,50.5838,4.259700,0.1121077,0.24534080,153.2200,02/02.0/2024,2000,g  7.2,10.0
# From MPEC 2024-C04
88P/Howell,e,4.3820,56.6659,235.9266,3.107073,0.1799603,0.56325532,220.3687,02/02.0/2024,2000,g 11.0,6.0
# From MPEC 2023-J29
89P/Russell,e,12.0721,41.3460,250.4006,3.752001,0.1356156,0.40782448,352.7303,02/02.0/2024,2000,g 11.5,6.0
# From MPEC 2022-K19
90P/Gehrels,e,9.6489,13.2167,29.1027,6.051913,0.0662011,0.51113633,159.8572,02/02.0/2024,2000,g  8.5,6.0
# From MPEC 2023-VM5
91P/Russell,e,15.6658,243.4832,358.9400,3.909363,0.1275103,0.33106780,151.0653,02/02.0/2024,2000,g  7.5,6.0
# From MPEC 2014-J58
92P/Sanguin,e,19.4960,181.3779,163.8017,5.342843,0.0798078,0.66058461,259.5397,02/02.0/2024,2000,g 12.0,6.0
# From NK 2707
93P/Lovas,e,12.2047,339.5875,74.9341,4.377515,0.1076125,0.61397032,271.6706,02/02.0/2024,2000,g  9.0,4.0
# From MPEC 2024-BE0
94P/Russell,e,6.1879,70.8519,92.4078,3.510615,0.1498405,0.36566045,38.5013,02/02.0/2024,2000,g  9.0,6.0
# From MPC 75717
95P/Chiron,e,6.9225,209.1993,339.4209,13.71081,0.0194137,0.37670723,199.8058,02/02.0/2024,2000,g  6.5,2.0
# From MPEC 2023-N01
96P/Machholz,e,57.5372,93.9541,14.7432,3.030791,0.1867970,0.96161704,68.5357,02/02.0/2024,2000,g 13.0,4.8
# From MPC106348
96P-B/Machholz,e,57.5047,14.7249,93.9512,3.030165,0.1868550,0.96162114,68.5577,02/02.0/2024,2000,g 13.0,4.8
# From MPC103849
96P-C/Machholz,e,58.5311,94.3495,15.5380,3.011920,0.1885553,0.95889850,359.8715,07/14.0/2012,2000,g  9.0,4.0
# From MPEC 2024-C04
97P/Metcalf-Brewington,e,17.9492,184.0801,230.0896,4.765611,0.0947384,0.46028887,67.8371,02/02.0/2024,2000,g  5.5,6.0
# From MPEC 2021-W31
98P/Takamizawa,e,10.5694,114.6413,157.7378,3.790319,0.1335643,0.56256817,150.1126,02/02.0/2024,2000,g  9.0,8.0
# From MPEC 2024-A43
99P/Kowal,e,4.3394,28.0955,174.6911,6.097616,0.0654582,0.22853949,43.3769,02/02.0/2024,2000,g  4.5,6.0
# From MPEC 2023-OA6
100P/Hartley,e,25.5673,37.6857,181.9641,3.430568,0.1551154,0.41171721,83.7904,02/02.0/2024,2000,g  9.0,8.0
# From MPEC 2022-K19
101P/Chernykh,e,5.0494,116.2399,277.7972,5.812913,0.0703256,0.59628458,104.1197,02/02.0/2024,2000,g 10.0,4.8
# From MPC105241
101P-B/Chernykh,e,5.0499,278.5571,115.4825,5.828401,0.0700455,0.59649602,102.4595,02/02.0/2024,2000,g  9.0,4.0
# From MPEC 2022-C56
102P/Shoemaker,e,25.8728,339.4113,20.6585,3.818238,0.1321020,0.45669045,146.0400,02/02.0/2024,2000,g  6.5,8.0
# From MPEC 2024-C04
103P/Hartley,e,13.6107,219.7494,181.2992,3.474475,0.1521844,0.69374175,17.1195,02/02.0/2024,2000,g  8.5,8.0
# From MPEC 2023-G31
104P/Kowal,e,5.7031,207.2080,227.2556,3.208663,0.1714817,0.66584560,128.8025,02/02.0/2024,2000,g 16.0,4.0
# From MPEC 2024-BE0
105P/SingerBrewster,e,9.1682,192.3972,46.3697,3.471197,0.1524001,0.40888951,305.7662,02/02.0/2024,2000,g 11.5,6.0
# From MPEC 2023-UR6
106P/Schuster,e,19.5405,48.8621,353.7639,3.766875,0.1348131,0.59392649,120.9217,02/02.0/2024,2000,g 14.0,4.8
# From MPEC 2015-M77
107P/Wilson-Harrington,e,2.7986,266.7549,95.4884,2.625157,0.2317241,0.63145196,121.9789,02/02.0/2024,2000,g  9.0,4.0
# From MPEC 2022-P82
108P/Ciffreo,e,11.4362,50.2976,354.4949,3.742347,0.1361407,0.55608442,119.0715,02/02.0/2024,2000,g  8.0,12.0
# From  105, 420
109P/Swift-Tuttle,e,113.5048,139.4134,153.1987,26.21145,0.0073446,0.96256298,83.4911,02/02.0/2024,2000,g  4.0,6.0
# From MPEC 2023-KD6
110P/Hartley,e,11.7069,287.4947,167.4953,3.603943,0.1440579,0.31896365,120.4799,02/02.0/2024,2000,g  1.0,12.0
# From MPC 75718
111P/Helin-Roman-Crockett,e,4.2258,89.8143,1.1865,4.152061,0.1164953,0.10709371,111.7547,02/02.0/2024,2000,g  5.0,8.0
# From MPEC 2021-S45
112P/Urata-Niijima,e,24.2103,31.8351,21.4942,3.523726,0.1490050,0.59082008,216.5689,02/02.0/2024,2000,g 14.0,6.0
# From MPEC 2023-VM5
113P/Spitaler,e,5.2879,306.6611,115.6210,3.694033,0.1388203,0.41994762,84.7240,02/02.0/2024,2000,g 13.5,4.0
# From MPEC 2023-A50
114P/Wiseman-Skiff,e,18.2995,271.0234,172.7619,3.541809,0.1478654,0.55587461,218.6465,02/02.0/2024,2000,g 11.5,6.0
# From MPEC 2023-J29
115P/Maury,e,11.6770,176.0140,120.9748,4.272178,0.1116169,0.51758567,143.2812,02/02.0/2024,2000,g 10.5,6.0
# From MPEC 2023-VM5
116P/Wild,e,3.6035,20.9724,173.2129,3.487811,0.1513124,0.37031791,85.5406,02/02.0/2024,2000,g  2.5,10.0
# From MPEC 2024-C04
117P/Helin-Roman-Alu,e,8.7054,58.8145,223.4490,4.092292,0.1190568,0.25606134,68.1030,02/02.0/2024,2000,g  2.5,8.0
# From MPEC 2023-XP6
118P/Shoemaker-Levy,e,10.0903,142.0872,314.8783,3.348104,0.1608814,0.45368934,69.9128,02/02.0/2024,2000,g 12.0,4.0
# From MPEC 2024-BE0
119P/Parker-Hartley,e,7.3923,104.5603,322.1632,3.807149,0.1326796,0.38837938,71.4788,02/02.0/2024,2000,g  3.5,8.0
# From MPEC 2022-CN4
120P/Mueller,e,8.4873,358.7239,36.7024,3.967703,0.1247083,0.37474615,124.7345,02/02.0/2024,2000,g 12.0,4.0
# From MPEC 2024-BE0
121P/Shoemaker-Holt,e,20.1631,94.1127,11.7305,4.585446,0.1003764,0.18645443,21.8607,02/02.0/2024,2000,g  6.5,8.0
# From MPC 75718
122P/de Vico,e,85.9049,79.7199,12.9916,17.62745,0.0133174,0.96244441,138.0329,02/02.0/2024,2000,g  7.5,5.2
# From MPEC 2021-F20
123P/West-Hartley,e,15.2797,45.9036,104.0277,3.881366,0.1288924,0.44428498,235.7809,02/02.0/2024,2000,g 12.2,4.0
# From MPEC 2023-T65
124P/Mrkos,e,31.4618,0.0769,185.1919,3.372629,0.1591297,0.48694561,221.1145,02/02.0/2024,2000,g 13.5,2.8
# From MPEC 2024-C04
125P/Spacewatch,e,9.9848,153.1510,87.1402,3.129378,0.1780398,0.51214205,353.8939,02/02.0/2024,2000,g 13.0,6.0
# From MPEC 2024-C04
126P/IRAS,e,45.8707,357.8640,356.5828,5.634940,0.0736835,0.69646865,15.5993,02/02.0/2024,2000,g  6.0,8.0
# From MPEC 2024-AF0
127P/Holt-Olmstead,e,14.3007,13.6073,6.3009,3.452674,0.1536281,0.35931168,83.0497,02/02.0/2024,2000,g 11.0,6.0
# From MPC 89014
128P/Shoemaker-Holt,e,4.3704,214.3405,210.3459,4.485734,0.1037418,0.32233590,267.1184,02/02.0/2024,2000,g  8.5,4.0
# From MPEC 2024-BE0
129P/Shoemaker-Levy,e,3.4423,184.8609,307.5306,4.291374,0.1108689,0.08551948,47.4784,02/02.0/2024,2000,g 11.0,4.0
# From MPEC 2024-BE0
130P/McNaught-Hughes,e,6.0636,70.1786,246.1247,3.381492,0.1585045,0.46089125,348.4488,02/02.0/2024,2000,g 10.0,6.0
# From MPC102101
131P/Mueller,e,7.3606,214.1779,179.1106,3.677218,0.1397736,0.34491183,255.9692,02/02.0/2024,2000,g 11.0,4.0
# From MPEC 2024-BE0
132P/Helin-Roman-Alu,e,5.3815,173.9950,216.4479,3.890251,0.1284510,0.56460509,104.1421,02/02.0/2024,2000,g 11.0,6.0
# From MPC 94676
133P/Elst-Pizarro,e,1.3897,160.1016,131.9166,3.164673,0.1750696,0.15608670,342.7863,02/02.0/2024,2000,g 15.4,2.0
# From MPC 89012
134P/Kowal-Vavrova,e,4.3350,202.0124,18.7837,6.267015,0.0628222,0.58508897,223.5858,02/02.0/2024,2000,g 11.5,4.0
# From MPEC 2024-C04
135P/Shoemaker-Levy,e,6.0639,213.0192,22.3893,3.800336,0.1330366,0.29429810,88.5560,02/02.0/2024,2000,g  7.0,8.0
# From MPEC 2022-K19
136P/Mueller,e,9.4277,137.4970,225.1470,4.186553,0.1150586,0.29328565,321.3181,02/02.0/2024,2000,g 11.0,4.0
# From MPEC 2023-J29
137P/Shoemaker-Levy,e,4.8601,232.9271,141.2124,4.522271,0.1024871,0.57362108,192.1246,02/02.0/2024,2000,g 11.0,4.0
# From MPEC 2016-U66
138P/Shoemaker-Levy,e,10.0954,309.2945,95.6177,3.619078,0.1431552,0.53160754,248.1749,02/02.0/2024,2000,g 15.0,6.0
# From MPEC 2020-HN5
139P/Vaisala-Oterma,e,2.3372,242.1799,165.8314,4.516374,0.1026879,0.24830396,230.0104,02/02.0/2024,2000,g  9.5,4.0
# From MPEC 2015-E14
140P/Bowell-Skiff,e,3.7959,343.3185,172.3991,6.405923,0.0607899,0.69602309,189.2189,02/02.0/2024,2000,g 11.5,6.0
# From MPEC 2022-K19
141P/Machholz,e,13.9547,241.8107,153.6000,3.057559,0.1843494,0.73608866,210.5309,02/02.0/2024,2000,g 12.0,12.0
# From MPEC 2015-KD9
141P-A/Machholz,e,13.9438,153.5566,241.8678,3.057693,0.1843373,0.73608471,210.4845,02/02.0/2024,2000,g 12.0,12.0
# From MPC 24216
141P-B/Machholz,e,13.9877,153.6323,241.7571,3.056084,0.1844829,0.73584257,211.8377,02/02.0/2024,2000,g  9.0,4.0
# From MPC 37026
